SAUDISAT 1C             
1 27607U 02058C   20027.18312831 -.00000033  00000-0  16156-4 0  9995
2 27607  64.5554  89.3503 0065270 212.0692 147.6433 14.75605080919860
SAUDISAT 2              
1 28371U 04025F   20027.02362950 -.00000138  00000-0 -21481-4 0  9994
2 28371  98.2624 337.5065 0024405 272.1823  87.6570 14.54366598826474
SAUDISAT 3              
1 31118U 07012B   20027.08548092 -.00000000  00000-0  79406-5 0  9993
2 31118  97.8499 350.6774 0016571  97.1152 263.1939 14.69152792685063
PISAT                   
1 41784U 16059B   20027.15166510  .00000047  00000-0  18189-4 0  9993
2 41784  98.0403  87.3592 0032759  43.7280 316.6508 14.63483972178095
FLYING LAPTOP           
1 42831U 17042G   20026.92984414 -.00000031  00000-0  21864-5 0  9994
2 42831  97.5410 275.3276 0015206  44.6515 315.5926 14.91080645138053